CORVUS BC2              
1 42846U 17042X   18145.73662508  .00000274  00000-0  32510-4 0  9992
2 42846  97.5994  49.4183 0008059 272.3383  87.6914 14.91810327 47022
CORVUS BC1              
1 42847U 17042Y   18145.71578011 -.00000024  00000-0  29738-5 0  9999
2 42847  97.5993  49.4442 0007685 272.0436  87.9903 14.91909288 47015
SILU-1 (SILKROAD 1)     
1 42903U 17021F   18146.16441066  .00020836  00000-0  16562-3 0  9999
2 42903  42.7774 101.5290 0010623 152.6060 328.5492 15.70738743 46469
MIRATA                  
1 43015U 17073C   18145.81726867  .00001393  00000-0  11557-3 0  9993
2 43015  97.7038  77.7734 0258126 344.7318  14.6205 14.78088236 27833
ASTERIA                 
1 43020U 98067NH  18146.22239513  .00004910  00000-0  68816-4 0  9993
2 43020  51.6403 124.6467 0003401  82.0636 278.0743 15.58785959 29063
DELLINGR (RBLE)         
1 43021U 98067NJ  18145.80031678  .00004923  00000-0  72930-4 0  9995
2 43021  51.6379 127.8097 0003137  76.2458 283.8883 15.57253789 28982
TECHEDSAT 6             
1 43026U 98067NK  18135.04917276  .24108771  12366-4  25107-2 0  9998
2 43026  51.6059 164.5237 0004943 311.1143  50.3672 16.36895032 27437
OSIRIS-3U               
1 43027U 98067NL  18146.16804777  .00021317  00000-0  23351-3 0  9997
2 43027  51.6365 122.0064 0004911  61.9794 298.1697 15.63204957 28970
AEROCUBE 7B             
1 43042U 17071F   18145.58470163  .00003244  00000-0  93615-4 0  9993
2 43042  51.6374 151.6175 0004932 176.3231 183.7790 15.38723783 26121
AEROCUBE 7C             
1 43043U 17071G   18145.51974780  .00001983  00000-0  61241-4 0  9999
2 43043  51.6380 151.9372 0004935 179.0216 181.0779 15.38720931 26082
CHEFSAT                 
1 43044U 17071H   18145.47607396  .00002382  00000-0  69750-4 0  9998
2 43044  51.6385 151.6602 0004748 178.8423 181.2573 15.39510439 26085
ASGARDIA 1              
1 43049U 17071N   18145.56743507  .00002288  00000-0  68746-4 0  9997
2 43049  51.6381 151.5108 0002226 194.3550 165.7372 15.38857062 26088
ISARA                   
1 43050U 17071P   18146.19020621  .00003313  00000-0  93362-4 0  9996
2 43050  51.6378 148.1777 0002067 193.1552 166.9379 15.39397378 26183
FAUNA                   
1 43052U 17071R   18145.23315941  .00002625  00000-0  77072-4 0  9999
2 43052  51.6383 153.0356 0002175 187.9240 172.1711 15.38979673 26030
CORVUS BC3              
1 43118U 18004H   18145.46335718  .00000718  00000-0  34352-4 0  9993
2 43118  97.5347 208.0067 0011046 166.0068 194.1476 15.22207939 20257
MICROMAS-2A             
1 43131U 18004W   18145.69427638  .00001515  00000-0  68029-4 0  9990
2 43131  97.5355 208.3223 0010233 167.5201 192.6290 15.22717464 20290
GOMX4-B                 
1 43196U 18015E   18145.55012675  .00000401  00000-0  19672-4 0  9992
2 43196  97.3430 274.9538 0017819 234.9927 124.9640 15.23540214 17080
GOMX4-A                 
1 43197U 18015F   18146.13908565  .00000395  00000-0  19353-4 0  9998
2 43197  97.3428 275.5322 0017993 233.2062 121.1762 15.23635363 17175
UBAKUSAT                
1 43466U 98067NP  18146.15069228  .00009213  00000-0  14083-3 0  9990
2 43466  51.6407 128.4624 0001599  69.8184  15.0582 15.55173517  2277
1KUNS-PF                
1 43467U 98067NQ  18146.15037476  .00007100  00000-0  11008-3 0  9998
2 43467  51.6414 128.4581 0003738  58.2878  27.7481 15.55199586  2279
IRAZU                   
1 43468U 98067NR  18145.23545284  .00009950  00000-0  15122-3 0  9994
2 43468  51.6408 133.0265 0001423  69.0926 291.0407 15.55227859102110
